{"type": "FeatureCollection", "features": [ {"type": "Feature", "properties": {"norad_id": 33980, "name": "COSMOS 2251 DEB", "group": "cosmos-2251-debris", "lat": 20.94922220086564, "lon": 48.784713305654165, "alt_km": 716.1315125360634, "timestamp": "2025-12-21T14:40:48.311983+00:00", "meta": {"OBJECT_NAME": "COSMOS 2251 DEB", "OBJECT_ID": "1993-036FP", "EPOCH": "2025-12-21T04:57:53.760672", "MEAN_MOTION": 14.58694317, "ECCENTRICITY": 0.00281793, "INCLINATION": 74.0208, "RA_OF_ASC_NODE": 43.2578, "ARG_OF_PERICENTER": 186.9418, "MEAN_ANOMALY": 230.2404, "EPHEMERIS_TYPE": 0, "CLASSIFICATION_TYPE": "U", "NORAD_CAT_ID": 33980, "ELEMENT_SET_NO": 999, "REV_AT_EPOCH": 88918, "BSTAR": 0.00037559789, "MEAN_MOTION_DOT": 1.732e-05, "MEAN_MOTION_DDOT": 0}, "tle": {"line1": "1 33980U 93036FP  25355.20687223  .00001732  00000+0  37560-3 0  9990", "line2": "2 33980  74.0208  43.2578 0028179 186.9418 230.2404 14.58694317889186"}}, "geometry": {"type": "Point", "coordinates": [48.784713305654165, 20.94922220086564]}}, {"type": "Feature", "properties": {"norad_id": 33982, "name": "COSMOS 2251 DEB", "group": "cosmos-2251-debris", "lat": -68.0592475942006, "lon": -62.121998007148186, "alt_km": 707.9035387060012, "timestamp": "2025-12-21T14:40:48.311993+00:00", "meta": {"OBJECT_NAME": "COSMOS 2251 DEB", "OBJECT_ID": "1993-036FR", "EPOCH": "2025-12-20T09:58:46.371072", "MEAN_MOTION": 14.60241195, "ECCENTRICITY": 0.00753191, "INCLINATION": 74.0699, "RA_OF_ASC_NODE": 345.3114, "ARG_OF_PERICENTER": 27.6327, "MEAN_ANOMALY": 94.6562, "EPHEMERIS_TYPE": 0, "CLASSIFICATION_TYPE": "U", "NORAD_CAT_ID": 33982, "ELEMENT_SET_NO": 999, "REV_AT_EPOCH": 89271, "BSTAR": 0.0003431333, "MEAN_MOTION_DOT": 1.692e-05, "MEAN_MOTION_DDOT": 0}, "tle": {"line1": "1 33982U 93036FR  25354.41581448  .00001692  00000+0  34313-3 0  9994", "line2": "2 33982  74.0699 345.3114 0075319  27.6327  94.6562 14.60241195892717"}}, "geometry": {"type": "Point", "coordinates": [-62.121998007148186, -68.0592475942006]}}, {"type": "Feature", "properties": {"norad_id": 33983, "name": "COSMOS 2251 DEB", "group": "cosmos-2251-debris", "lat": -73.60017873882342, "lon": 54.03102648478277, "alt_km": 719.0023787559894, "timestamp": "2025-12-21T14:40:48.312003+00:00", "meta": {"OBJECT_NAME": "COSMOS 2251 DEB", "OBJECT_ID": "1993-036FS", "EPOCH": "2025-12-20T19:43:58.424736", "MEAN_MOTION": 14.50699999, "ECCENTRICITY": 0.00212254, "INCLINATION": 74.0493, "RA_OF_ASC_NODE": 131.8649, "ARG_OF_PERICENTER": 234.062, "MEAN_ANOMALY": 238.2815, "EPHEMERIS_TYPE": 0, "CLASSIFICATION_TYPE": "U", "NORAD_CAT_ID": 33983, "ELEMENT_SET_NO": 999, "REV_AT_EPOCH": 88746, "BSTAR": 0.00035841594, "MEAN_MOTION_DOT": 1.385e-05, "MEAN_MOTION_DDOT": 0}, "tle": {"line1": "1 33983U 93036FS  25354.82220399  .00001385  00000+0  35842-3 0  9992", "line2": "2 33983  74.0493 131.8649 0021225 234.0620 238.2815 14.50699999887469"}}, "geometry": {"type": "Point", "coordinates": [54.03102648478277, -73.60017873882342]}}, {"type": "Feature", "properties": {"norad_id": 33984, "name": "COSMOS 2251 DEB", "group": "cosmos-2251-debris", "lat": 18.231727629055897, "lon": 144.54926973701268, "alt_km": 656.5659494447809, "timestamp": "2025-12-21T14:40:48.312014+00:00", "meta": {"OBJECT_NAME": "COSMOS 2251 DEB", "OBJECT_ID": "1993-036FT", "EPOCH": "2025-12-20T17:28:07.943808", "MEAN_MOTION": 14.66425014, "ECCENTRICITY": 0.00226558, "INCLINATION": 74.0092, "RA_OF_ASC_NODE": 331.6753, "ARG_OF_PERICENTER": 167.4977, "MEAN_ANOMALY": 9.642, "EPHEMERIS_TYPE": 0, "CLASSIFICATION_TYPE": "U", "NORAD_CAT_ID": 33984, "ELEMENT_SET_NO": 999, "REV_AT_EPOCH": 89183, "BSTAR": 0.00051467732, "MEAN_MOTION_DOT": 2.827e-05, "MEAN_MOTION_DDOT": 0}, "tle": {"line1": "1 33984U 93036FT  25354.72786972  .00002827  00000+0  51468-3 0  9990", "line2": "2 33984  74.0092 331.6753 0022655 167.4977   9.6420 14.66425014891833"}}, "geometry": {"type": "Point", "coordinates": [144.54926973701268, 18.231727629055897]}}, {"type": "Feature", "properties": {"norad_id": 33986, "name": "COSMOS 2251 DEB", "group": "cosmos-2251-debris", "lat": 29.80042038766535, "lon": 96.75819107734213, "alt_km": 771.6196219080512, "timestamp": "2025-12-21T14:40:48.312024+00:00", "meta": {"OBJECT_NAME": "COSMOS 2251 DEB", "OBJECT_ID": "1993-036FV", "EPOCH": "2025-12-21T02:27:33.268896", "MEAN_MOTION": 14.43240913, "ECCENTRICITY": 0.00409072, "INCLINATION": 74.0371, "RA_OF_ASC_NODE": 287.1386, "ARG_OF_PERICENTER": 358.0224, "MEAN_ANOMALY": 25.961, "EPHEMERIS_TYPE": 0, "CLASSIFICATION_TYPE": "U", "NORAD_CAT_ID": 33986, "ELEMENT_SET_NO": 999, "REV_AT_EPOCH": 88149, "BSTAR": 0.00047269361, "MEAN_MOTION_DOT": 1.58e-05, "MEAN_MOTION_DDOT": 0}, "tle": {"line1": "1 33986U 93036FV  25355.10246839  .00001580  00000+0  47269-3 0  9997", "line2": "2 33986  74.0371 287.1386 0040907 358.0224  25.9610 14.43240913881496"}}, "geometry": {"type": "Point", "coordinates": [96.75819107734213, 29.80042038766535]}}, {"type": "Feature", "properties": {"norad_id": 33990, "name": "COSMOS 2251 DEB", "group": "cosmos-2251-debris", "lat": 67.91596465211494, "lon": 46.47661728940505, "alt_km": 1367.5051764303744, "timestamp": "2025-12-21T14:40:48.312034+00:00", "meta": {"OBJECT_NAME": "COSMOS 2251 DEB", "OBJECT_ID": "1993-036FZ", "EPOCH": "2025-12-21T03:48:42.156864", "MEAN_MOTION": 13.50007482, "ECCENTRICITY": 0.04074091, "INCLINATION": 73.9285, "RA_OF_ASC_NODE": 272.4779, "ARG_OF_PERICENTER": 291.2724, "MEAN_ANOMALY": 133.5634, "EPHEMERIS_TYPE": 0, "CLASSIFICATION_TYPE": "U", "NORAD_CAT_ID": 33990, "ELEMENT_SET_NO": 999, "REV_AT_EPOCH": 82843, "BSTAR": 0.00062134481, "MEAN_MOTION_DOT": 6.38e-06, "MEAN_MOTION_DDOT": 0}, "tle": {"line1": "1 33990U 93036FZ  25355.15882126  .00000638  00000+0  62134-3 0  9993", "line2": "2 33990  73.9285 272.4779 0407409 291.2724 133.5634 13.50007482828439"}}, "geometry": {"type": "Point", "coordinates": [46.47661728940505, 67.91596465211494]}}, {"type": "Feature", "properties": {"norad_id": 33992, "name": "COSMOS 2251 DEB", "group": "cosmos-2251-debris", "lat": 17.186048274512075, "lon": -34.293684907843165, "alt_km": 653.520744645959, "timestamp": "2025-12-21T14:40:48.312044+00:00", "meta": {"OBJECT_NAME": "COSMOS 2251 DEB", "OBJECT_ID": "1993-036GB", "EPOCH": "2025-12-21T06:42:44.054784", "MEAN_MOTION": 14.66276281, "ECCENTRICITY": 0.00517602, "INCLINATION": 74.0241, "RA_OF_ASC_NODE": 321.2631, "ARG_OF_PERICENTER": 76.4738, "MEAN_ANOMALY": 350.2974, "EPHEMERIS_TYPE": 0, "CLASSIFICATION_TYPE": "U", "NORAD_CAT_ID": 33992, "ELEMENT_SET_NO": 999, "REV_AT_EPOCH": 89250, "BSTAR": 0.00059891084, "MEAN_MOTION_DOT": 3.338e-05, "MEAN_MOTION_DDOT": 0}, "tle": {"line1": "1 33992U 93036GB  25355.27967656  .00003338  00000+0  59891-3 0  9996", "line2": "2 33992  74.0241 321.2631 0051760  76.4738 350.2974 14.66276281892505"}}, "geometry": {"type": "Point", "coordinates": [-34.293684907843165, 17.186048274512075]}}, {"type": "Feature", "properties": {"norad_id": 33994, "name": "COSMOS 2251 DEB", "group": "cosmos-2251-debris", "lat": -30.835823089553244, "lon": 3.8275093618537577, "alt_km": 761.4625026709637, "timestamp": "2025-12-21T14:40:48.312054+00:00", "meta": {"OBJECT_NAME": "COSMOS 2251 DEB", "OBJECT_ID": "1993-036GD", "EPOCH": "2025-12-21T06:11:39.185088", "MEAN_MOTION": 14.4121949, "ECCENTRICITY": 0.00239053, "INCLINATION": 74.0415, "RA_OF_ASC_NODE": 174.6461, "ARG_OF_PERICENTER": 307.5255, "MEAN_ANOMALY": 231.1049, "EPHEMERIS_TYPE": 0, "CLASSIFICATION_TYPE": "U", "NORAD_CAT_ID": 33994, "ELEMENT_SET_NO": 999, "REV_AT_EPOCH": 88542, "BSTAR": 7.2552774e-05, "MEAN_MOTION_DOT": 2.08e-06, "MEAN_MOTION_DDOT": 0}, "tle": {"line1": "1 33994U 93036GD  25355.25809242  .00000208  00000+0  72553-4 0  9996", "line2": "2 33994  74.0415 174.6461 0023905 307.5255 231.1049 14.41219490885428"}}, "geometry": {"type": "Point", "coordinates": [3.8275093618537577, -30.835823089553244]}}, {"type": "Feature", "properties": {"norad_id": 33995, "name": "COSMOS 2251 DEB", "group": "cosmos-2251-debris", "lat": 72.65022929633842, "lon": 169.28303393725471, "alt_km": 732.131738301975, "timestamp": "2025-12-21T14:40:48.312064+00:00", "meta": {"OBJECT_NAME": "COSMOS 2251 DEB", "OBJECT_ID": "1993-036GE", "EPOCH": "2025-12-20T09:50:53.769120", "MEAN_MOTION": 14.34807762, "ECCENTRICITY": 0.00595956, "INCLINATION": 74.0617, "RA_OF_ASC_NODE": 105.3188, "ARG_OF_PERICENTER": 117.5875, "MEAN_ANOMALY": 243.1347, "EPHEMERIS_TYPE": 0, "CLASSIFICATION_TYPE": "U", "NORAD_CAT_ID": 33995, "ELEMENT_SET_NO": 999, "REV_AT_EPOCH": 87629, "BSTAR": 0.00058743602, "MEAN_MOTION_DOT": 1.675e-05, "MEAN_MOTION_DDOT": 0}, "tle": {"line1": "1 33995U 93036GE  25354.41034455  .00001675  00000+0  58744-3 0  9994", "line2": "2 33995  74.0617 105.3188 0059595 117.5875 243.1347 14.34807762876297"}}, "geometry": {"type": "Point", "coordinates": [169.28303393725471, 72.65022929633842]}}, {"type": "Feature", "properties": {"norad_id": 33999, "name": "COSMOS 2251 DEB", "group": "cosmos-2251-debris", "lat": -6.2496894588573095, "lon": -148.72918025743004, "alt_km": 633.4097878448729, "timestamp": "2025-12-21T14:40:48.312074+00:00", "meta": {"OBJECT_NAME": "COSMOS 2251 DEB", "OBJECT_ID": "1993-036GJ", "EPOCH": "2025-12-21T00:08:35.899584", "MEAN_MOTION": 14.83509609, "ECCENTRICITY": 0.00443849, "INCLINATION": 73.9174, "RA_OF_ASC_NODE": 214.2892, "ARG_OF_PERICENTER": 107.3772, "MEAN_ANOMALY": 253.2267, "EPHEMERIS_TYPE": 0, "CLASSIFICATION_TYPE": "U", "NORAD_CAT_ID": 33999, "ELEMENT_SET_NO": 999, "REV_AT_EPOCH": 89373, "BSTAR": 0.00071982618, "MEAN_MOTION_DOT": 5.995e-05, "MEAN_MOTION_DDOT": 0}, "tle": {"line1": "1 33999U 93036GJ  25355.00597106  .00005995  00000+0  71983-3 0  9990", "line2": "2 33999  73.9174 214.2892 0044384 107.3772 253.2267 14.83509609893736"}}, "geometry": {"type": "Point", "coordinates": [-148.72918025743004, -6.2496894588573095]}}]}